SUOMI-100               
1 43804U 18099AY  26068.68271181  .00014037  00000+0  54773-3 0  9995
2 43804  97.4315 129.5602 0008969 269.9465  90.0745 15.25995383398238
STARLINK-30409          
1 57820U 23138N   26068.49726037  .00001177  00000+0  53563-4 0  9990
2 57820  42.9995 234.8360 0001012 276.7860  83.2876 15.26737941138650
